ONEWEB-0435             
1 51632U 22012L   25248.61117727 -.00000303  00000+0 -90474-3 0  9991
2 51632  87.8750  93.0408 0001484  71.0157 289.1132 13.10375776172046
ONEWEB-0436             
1 51633U 22012M   25248.52750910  .00000115  00000+0  26332-3 0  9990
2 51633  87.9030  62.4648 0001487  87.1391 272.9911 13.17650211176198
ONEWEB-0438             
1 51634U 22012N   25248.59457206 -.00000533  00000+0 -15635-2 0  9999
2 51634  87.8745  93.0448 0001846  84.8045 275.3293 13.10371081172079
ONEWEB-0439             
1 51635U 22012P   25248.59789128 -.00000613  00000+0 -17916-2 0  9994
2 51635  87.8746  93.0326 0001689  81.6698 278.4621 13.10371341172056
ONEWEB-0442             
1 51636U 22012Q   25248.51992728  .00000102  00000+0  23041-3 0  9997
2 51636  87.9029  62.5201 0002321  98.9261 261.2134 13.17648359176186
ONEWEB-0443             
1 51637U 22012R   25248.53932860  .00000076  00000+0  16154-3 0  9998
2 51637  87.9025  62.5241 0001977  83.7856 276.3500 13.17648155176239
ONEWEB-0444             
1 51638U 22012S   25248.58794934 -.00000362  00000+0 -10726-2 0  9990
2 51638  87.8741  93.0348 0001647  78.5730 281.5582 13.10370758172067
ONEWEB-0445             
1 51639U 22012T   25248.60953210 -.00000263  00000+0 -79084-3 0  9991
2 51639  87.8760  92.9835 0001689  90.3962 269.7359 13.10375314172077
